start=new Date('2021-09-16T00:00:00.000Z').valueOf();
sats=[{"LAUNCH_DATE":"2020-06-04","RA_OF_ASC_NODE":"201.6073","ECCENTRICITY":"0.00019490","CLASSIFICATION_TYPE":"U","OBJECT_NAME":"STARLINK-1395","TLE_LINE2":"2 45680  53.0542 201.6073 0001949  62.2592 297.8595 15.06395603 71856","CENTER_NAME":"EARTH","SITE":"AFETR","SEMIMAJOR_AXIS":"6925.362","REV_AT_EPOCH":"7185","MEAN_MOTION_DDOT":"0.0000000000000","DECAY_DATE":null,"OBJECT_ID":"2020-035Z","OBJECT_TYPE":"PAYLOAD","FILE":"3116412","INCLINATION":"53.0542","NORAD_CAT_ID":"45680","TIME_SYSTEM":"UTC","MEAN_MOTION":"15.06395603","EPOCH":"2021-09-15T12:51:36.901728","GP_ID":"184762476","MEAN_ANOMALY":"297.8595","REF_FRAME":"TEME","PERIAPSIS":"545.877","EPHEMERIS_TYPE":"0","MEAN_ELEMENT_THEORY":"SGP4","MEAN_MOTION_DOT":"0.00001268","BSTAR":"0.00010400000000","ELEMENT_SET_NO":"999","ARG_OF_PERICENTER":"62.2592","PERIOD":"95.592","TLE_LINE1":"1 45680U 20035Z   21258.53584377  .00001268  00000-0  10400-3 0  9998","COUNTRY_CODE":"US","APOAPSIS":"548.577","RCS_SIZE":"LARGE"},{"CLASSIFICATION_TYPE":"U","OBJECT_NAME":"STARLINK-1396","LAUNCH_DATE":"2020-06-04","RA_OF_ASC_NODE":"202.8135","ECCENTRICITY":"0.00014810","REV_AT_EPOCH":"7181","SEMIMAJOR_AXIS":"6925.367","TLE_LINE2":"2 45681  53.0533 202.8135 0001481  64.7743 295.3399 15.06393852 71810","SITE":"AFETR","CENTER_NAME":"EARTH","MEAN_MOTION_DDOT":"0.0000000000000","OBJECT_ID":"2020-035AA","DECAY_DATE":null,"OBJECT_TYPE":"PAYLOAD","EPOCH":"2021-09-15T06:24:09.132768","FILE":"3116412","NORAD_CAT_ID":"45681","TIME_SYSTEM":"UTC","MEAN_MOTION":"15.06393852","INCLINATION":"53.0533","MEAN_MOTION_DOT":"0.00000060","MEAN_ELEMENT_THEORY":"SGP4","REF_FRAME":"TEME","GP_ID":"184762483","MEAN_ANOMALY":"295.3399","EPHEMERIS_TYPE":"0","PERIAPSIS":"546.207","PERIOD":"95.593","TLE_LINE1":"1 45681U 20035AA  21258.26677237  .00000060  00000-0  22947-4 0  9996","COUNTRY_CODE":"US","ELEMENT_SET_NO":"999","BSTAR":"0.00002294700000","ARG_OF_PERICENTER":"64.7743","RCS_SIZE":"LARGE","APOAPSIS":"548.258"},{"APOAPSIS":"548.257","RCS_SIZE":"LARGE","BSTAR":"0.00000312480000","ELEMENT_SET_NO":"999","ARG_OF_PERICENTER":"58.4912","PERIOD":"95.592","TLE_LINE1":"1 45682U 20035AB  21258.53953218 -.00000235  00000-0  31248-5 0  9993","COUNTRY_CODE":"US","GP_ID":"184786648","REF_FRAME":"TEME","MEAN_ANOMALY":"301.6223","PERIAPSIS":"546.175","EPHEMERIS_TYPE":"0","MEAN_ELEMENT_THEORY":"SGP4","MEAN_MOTION_DOT":"-0.00000235","FILE":"3116597","INCLINATION":"53.0551","NORAD_CAT_ID":"45682","TIME_SYSTEM":"UTC","MEAN_MOTION":"15.06399258","EPOCH":"2021-09-15T12:56:55.580352","OBJECT_TYPE":"PAYLOAD","MEAN_MOTION_DDOT":"0.0000000000000","OBJECT_ID":"2020-035AB","DECAY_DATE":null,"TLE_LINE2":"2 45682  53.0551 201.5906 0001503  58.4912 301.6223 15.06399258 72258","CENTER_NAME":"EARTH","SITE":"AFETR","REV_AT_EPOCH":"7225","SEMIMAJOR_AXIS":"6925.351","LAUNCH_DATE":"2020-06-04","RA_OF_ASC_NODE":"201.5906","ECCENTRICITY":"0.00015030","OBJECT_NAME":"STARLINK-1397","CLASSIFICATION_TYPE":"U"},{"OBJECT_TYPE":"PAYLOAD","MEAN_MOTION_DDOT":"0.0000000000000","DECAY_DATE":null,"OBJECT_ID":"2020-035AC","SEMIMAJOR_AXIS":"6925.367","REV_AT_EPOCH":"7222","TLE_LINE2":"2 45683  53.0536 202.8604 0001772  58.9963 301.1199 15.06394143 72222","SITE":"AFETR","CENTER_NAME":"EARTH","OBJECT_NAME":"STARLINK-1399","CLASSIFICATION_TYPE":"U","LAUNCH_DATE":"2020-06-04","RA_OF_ASC_NODE":"202.8604","ECCENTRICITY":"0.00017720","RCS_SIZE":"LARGE","APOAPSIS":"548.459","COUNTRY_CODE":"US","TLE_LINE1":"1 45683U 20035AC  21258.25571739 -.00000071  00000-0  14169-4 0  9997","PERIOD":"95.593","ELEMENT_SET_NO":"999","BSTAR":"0.00001416900000","ARG_OF_PERICENTER":"58.9963","MEAN_MOTION_DOT":"-0.00000071","MEAN_ELEMENT_THEORY":"SGP4","GP_ID":"184757337","MEAN_ANOMALY":"301.1199","REF_FRAME":"TEME","EPHEMERIS_TYPE":"0","PERIAPSIS":"546.004","EPOCH":"2021-09-15T06:08:13.982496","FILE":"3116289","MEAN_MOTION":"15.06394143","NORAD_CAT_ID":"45683","TIME_SYSTEM":"UTC","INCLINATION":"53.0536"},{"MEAN_MOTION_DOT":"-0.00000217","MEAN_ELEMENT_THEORY":"SGP4","GP_ID":"184756586","REF_FRAME":"TEME","MEAN_ANOMALY":"290.3559","EPHEMERIS_TYPE":"0","PERIAPSIS":"545.954","EPOCH":"2021-09-15T05:36:23.566176","FILE":"3116289","NORAD_CAT_ID":"45684","MEAN_MOTION":"15.06396659","TIME_SYSTEM":"UTC","INCLINATION":"53.0539","RCS_SIZE":"LARGE","APOAPSIS":"548.493","TLE_LINE1":"1 45684U 20035AD  21258.23360609 -.00000217  00000-0  43685-5 0  9996","COUNTRY_CODE":"US","PERIOD":"95.592","ELEMENT_SET_NO":"999","BSTAR":"0.00000436850000","ARG_OF_PERICENTER":"69.7627","REV_AT_EPOCH":"7222","SEMIMAJOR_AXIS":"6925.359","TLE_LINE2":"2 45684  53.0539 202.9616 0001833  69.7627 290.3559 15.06396659 72228","SITE":"AFETR","CENTER_NAME":"EARTH","OBJECT_NAME":"STARLINK-1401","CLASSIFICATION_TYPE":"U","LAUNCH_DATE":"2020-06-04","RA_OF_ASC_NODE":"202.9616","ECCENTRICITY":"0.00018330","OBJECT_TYPE":"PAYLOAD","MEAN_MOTION_DDOT":"0.0000000000000","OBJECT_ID":"2020-035AD","DECAY_DATE":null},{"OBJECT_NAME":"STARLINK-1402","CLASSIFICATION_TYPE":"U","ECCENTRICITY":"0.00017480","RA_OF_ASC_NODE":"201.4923","LAUNCH_DATE":"2020-06-04","SEMIMAJOR_AXIS":"6925.365","REV_AT_EPOCH":"7227","SITE":"AFETR","CENTER_NAME":"EARTH","TLE_LINE2":"2 45685  53.0548 201.4923 0001748  63.3041 296.8127 15.06394514 72274","OBJECT_ID":"2020-035AE","DECAY_DATE":null,"MEAN_MOTION_DDOT":"0.0000000000000","OBJECT_TYPE":"PAYLOAD","EPOCH":"2021-09-15T13:28:46.634304","MEAN_MOTION":"15.06394514","NORAD_CAT_ID":"45685","TIME_SYSTEM":"UTC","INCLINATION":"53.0548","FILE":"3116597","MEAN_MOTION_DOT":"0.00001431","MEAN_ELEMENT_THEORY":"SGP4","EPHEMERIS_TYPE":"0","PERIAPSIS":"546.020","REF_FRAME":"TEME","GP_ID":"184786901","MEAN_ANOMALY":"296.8127","COUNTRY_CODE":"US","TLE_LINE1":"1 45685U 20035AE  21258.56165086  .00001431  00000-0  11494-3 0  9994","PERIOD":"95.592","ARG_OF_PERICENTER":"63.3041","ELEMENT_SET_NO":"999","BSTAR":"0.00011494000000","RCS_SIZE":"LARGE","APOAPSIS":"548.441"},{"OBJECT_ID":"2020-035AF","DECAY_DATE":null,"MEAN_MOTION_DDOT":"0.0000000000000","OBJECT_TYPE":"PAYLOAD","OBJECT_NAME":"STARLINK-1404","CLASSIFICATION_TYPE":"U","ECCENTRICITY":"0.00017550","RA_OF_ASC_NODE":"201.5247","LAUNCH_DATE":"2020-06-04","REV_AT_EPOCH":"7227","SEMIMAJOR_AXIS":"6925.372","CENTER_NAME":"EARTH","SITE":"AFETR","TLE_LINE2":"2 45686  53.0538 201.5247 0001755  58.6633 301.4527 15.06392409 72274","TLE_LINE1":"1 45686U 20035AF  21258.55427954 -.00000226  00000-0  37458-5 0  9991","COUNTRY_CODE":"US","PERIOD":"95.593","ARG_OF_PERICENTER":"58.6633","BSTAR":"0.00000374580000","ELEMENT_SET_NO":"999","RCS_SIZE":"LARGE","APOAPSIS":"548.452","EPOCH":"2021-09-15T13:18:09.752256","INCLINATION":"53.0538","NORAD_CAT_ID":"45686","MEAN_MOTION":"15.06392409","TIME_SYSTEM":"UTC","FILE":"3116597","MEAN_ELEMENT_THEORY":"SGP4","MEAN_MOTION_DOT":"-0.00000226","PERIAPSIS":"546.021","EPHEMERIS_TYPE":"0","MEAN_ANOMALY":"301.4527","GP_ID":"184787149","REF_FRAME":"TEME"},{"ARG_OF_PERICENTER":"50.4294","ELEMENT_SET_NO":"999","BSTAR":"-0.00003952100000","COUNTRY_CODE":"US","TLE_LINE1":"1 45687U 20035AG  21258.53485271 -.00000855  00000-0 -39521-4 0  9997","PERIOD":"95.645","APOAPSIS":"550.890","RCS_SIZE":"LARGE","TIME_SYSTEM":"UTC","NORAD_CAT_ID":"45687","MEAN_MOTION":"15.05570962","INCLINATION":"53.0012","FILE":"3116289","EPOCH":"2021-09-15T12:50:11.274144","EPHEMERIS_TYPE":"0","PERIAPSIS":"548.621","REF_FRAME":"TEME","GP_ID":"184757837","MEAN_ANOMALY":"309.6838","MEAN_MOTION_DOT":"-0.00000855","MEAN_ELEMENT_THEORY":"SGP4","OBJECT_ID":"2020-035AG","DECAY_DATE":null,"MEAN_MOTION_DDOT":"0.0000000000000","OBJECT_TYPE":"PAYLOAD","ECCENTRICITY":"0.00016380","LAUNCH_DATE":"2020-06-04","RA_OF_ASC_NODE":"191.6040","OBJECT_NAME":"STARLINK-1406","CLASSIFICATION_TYPE":"U","SITE":"AFETR","CENTER_NAME":"EARTH","TLE_LINE2":"2 45687  53.0012 191.6040 0001638  50.4294 309.6838 15.05570962 72383","SEMIMAJOR_AXIS":"6927.891","REV_AT_EPOCH":"7238"},{"RCS_SIZE":"LARGE","APOAPSIS":"548.252","COUNTRY_CODE":"US","TLE_LINE1":"1 45688U 20035AH  21258.34786762  .00000299  00000-0  38972-4 0  9995","PERIOD":"95.593","ARG_OF_PERICENTER":"71.5012","ELEMENT_SET_NO":"999","BSTAR":"0.00003897200000","MEAN_MOTION_DOT":"0.00000299","MEAN_ELEMENT_THEORY":"SGP4","EPHEMERIS_TYPE":"0","PERIAPSIS":"546.238","GP_ID":"184756087","REF_FRAME":"TEME","MEAN_ANOMALY":"288.6135","EPOCH":"2021-09-15T08:20:55.762368","MEAN_MOTION":"15.06389724","NORAD_CAT_ID":"45688","TIME_SYSTEM":"UTC","INCLINATION":"53.0536","FILE":"3116289","OBJECT_TYPE":"PAYLOAD","DECAY_DATE":null,"OBJECT_ID":"2020-035AH","MEAN_MOTION_DDOT":"0.0000000000000","REV_AT_EPOCH":"7223","SEMIMAJOR_AXIS":"6925.380","SITE":"AFETR","CENTER_NAME":"EARTH","TLE_LINE2":"2 45688  53.0536 202.4466 0001454  71.5012 288.6135 15.06389724 72231","OBJECT_NAME":"STARLINK-1408","CLASSIFICATION_TYPE":"U","ECCENTRICITY":"0.00014540","LAUNCH_DATE":"2020-06-04","RA_OF_ASC_NODE":"202.4466"},{"CLASSIFICATION_TYPE":"U","OBJECT_NAME":"STARLINK-1413","RA_OF_ASC_NODE":"201.4386","LAUNCH_DATE":"2020-06-04","ECCENTRICITY":"0.00015480","REV_AT_EPOCH":"7218","SEMIMAJOR_AXIS":"6925.348","TLE_LINE2":"2 45689  53.0529 201.4386 0001548  61.4903 298.6242 15.06400331 72187","SITE":"AFETR","CENTER_NAME":"EARTH","MEAN_MOTION_DDOT":"0.0000000000000","DECAY_DATE":null,"OBJECT_ID":"2020-035AJ","OBJECT_TYPE":"PAYLOAD","EPOCH":"2021-09-15T13:44:41.289504","FILE":"3116597","NORAD_CAT_ID":"45689","TIME_SYSTEM":"UTC","MEAN_MOTION":"15.06400331","INCLINATION":"53.0529","MEAN_MOTION_DOT":"0.00001527","MEAN_ELEMENT_THEORY":"SGP4","GP_ID":"184786401","REF_FRAME":"TEME","MEAN_ANOMALY":"298.6242","EPHEMERIS_TYPE":"0","PERIAPSIS":"546.140","TLE_LINE1":"1 45689U 20035AJ  21258.57270011  .00001527  00000-0  12138-3 0  9996","COUNTRY_CODE":"US","PERIOD":"95.592","ELEMENT_SET_NO":"999","BSTAR":"0.00012138000000","ARG_OF_PERICENTER":"61.4903","RCS_SIZE":"LARGE","APOAPSIS":"548.285"}];
